{"fetched_at":"2026-07-23T07:05:43.411Z","source":"https://celestrak.org/NORAD/elements/gp.php?NAME=HAWK&FORMAT=JSON","constellation":"hawkeye-360","records":[{"OBJECT_NAME":"HAWK-7B","OBJECT_ID":"2023-054R","EPOCH":"2026-07-22T17:54:33.353568","CLASSIFICATION_TYPE":"U","MEAN_MOTION":15.27690228,"ECCENTRICITY":0.00004923,"INCLINATION":97.2681,"RA_OF_ASC_NODE":88.4552,"ARG_OF_PERICENTER":355.1167,"MEAN_ANOMALY":5.0068,"EPHEMERIS_TYPE":0,"NORAD_CAT_ID":56193,"ELEMENT_SET_NO":999,"REV_AT_EPOCH":18245,"BSTAR":0.00020297445,"MEAN_MOTION_DOT":0.0000542,"MEAN_MOTION_DDOT":0},{"OBJECT_NAME":"HAWK-7C","OBJECT_ID":"2023-054Y","EPOCH":"2026-07-22T13:11:24.620928","CLASSIFICATION_TYPE":"U","MEAN_MOTION":15.27686732,"ECCENTRICITY":0.000031,"INCLINATION":97.2655,"RA_OF_ASC_NODE":89.0215,"ARG_OF_PERICENTER":267.9693,"MEAN_ANOMALY":92.1512,"EPHEMERIS_TYPE":0,"NORAD_CAT_ID":56200,"ELEMENT_SET_NO":999,"REV_AT_EPOCH":18242,"BSTAR":0.00019996991,"MEAN_MOTION_DOT":0.00005338,"MEAN_MOTION_DDOT":0},{"OBJECT_NAME":"HAWK-8A","OBJECT_ID":"2024-066B","EPOCH":"2026-07-22T16:39:51.336288","CLASSIFICATION_TYPE":"U","MEAN_MOTION":14.9929593,"ECCENTRICITY":0.0003448,"INCLINATION":45.5993,"RA_OF_ASC_NODE":93.0377,"ARG_OF_PERICENTER":248.909,"MEAN_ANOMALY":111.1423,"EPHEMERIS_TYPE":0,"NORAD_CAT_ID":59443,"ELEMENT_SET_NO":999,"REV_AT_EPOCH":12516,"BSTAR":0.000087585108,"MEAN_MOTION_DOT":0.00000854,"MEAN_MOTION_DDOT":0},{"OBJECT_NAME":"HAWK-8B","OBJECT_ID":"2024-066D","EPOCH":"2026-07-22T18:16:29.434656","CLASSIFICATION_TYPE":"U","MEAN_MOTION":14.99295331,"ECCENTRICITY":0.0003626,"INCLINATION":45.6165,"RA_OF_ASC_NODE":94.6842,"ARG_OF_PERICENTER":252.7339,"MEAN_ANOMALY":107.3146,"EPHEMERIS_TYPE":0,"NORAD_CAT_ID":59445,"ELEMENT_SET_NO":999,"REV_AT_EPOCH":12516,"BSTAR":0.00006505975,"MEAN_MOTION_DOT":0.00000575,"MEAN_MOTION_DDOT":0},{"OBJECT_NAME":"HAWK-9A","OBJECT_ID":"2024-066E","EPOCH":"2026-07-22T17:13:54.853536","CLASSIFICATION_TYPE":"U","MEAN_MOTION":14.99231434,"ECCENTRICITY":0.00033282,"INCLINATION":45.6102,"RA_OF_ASC_NODE":93.5726,"ARG_OF_PERICENTER":237.2704,"MEAN_ANOMALY":122.7857,"EPHEMERIS_TYPE":0,"NORAD_CAT_ID":59446,"ELEMENT_SET_NO":999,"REV_AT_EPOCH":12516,"BSTAR":0.00010183801,"MEAN_MOTION_DOT":0.00001029,"MEAN_MOTION_DDOT":0},{"OBJECT_NAME":"HAWK-9C","OBJECT_ID":"2024-066G","EPOCH":"2026-07-22T17:14:18.081312","CLASSIFICATION_TYPE":"U","MEAN_MOTION":14.9923134,"ECCENTRICITY":0.00032621,"INCLINATION":45.6073,"RA_OF_ASC_NODE":92.6681,"ARG_OF_PERICENTER":224.1947,"MEAN_ANOMALY":135.8674,"EPHEMERIS_TYPE":0,"NORAD_CAT_ID":59448,"ELEMENT_SET_NO":999,"REV_AT_EPOCH":12516,"BSTAR":0.00011271993,"MEAN_MOTION_DOT":0.00001163,"MEAN_MOTION_DDOT":0},{"OBJECT_NAME":"HAWK-8C","OBJECT_ID":"2024-066H","EPOCH":"2026-07-22T18:15:41.469696","CLASSIFICATION_TYPE":"U","MEAN_MOTION":14.9930392,"ECCENTRICITY":0.00031032,"INCLINATION":45.6079,"RA_OF_ASC_NODE":93.6986,"ARG_OF_PERICENTER":256.9227,"MEAN_ANOMALY":103.1308,"EPHEMERIS_TYPE":0,"NORAD_CAT_ID":59449,"ELEMENT_SET_NO":999,"REV_AT_EPOCH":12516,"BSTAR":0.000089524043,"MEAN_MOTION_DOT":0.00000878,"MEAN_MOTION_DDOT":0},{"OBJECT_NAME":"HAWK-9B","OBJECT_ID":"2024-066J","EPOCH":"2026-07-22T06:02:41.852256","CLASSIFICATION_TYPE":"U","MEAN_MOTION":14.99226615,"ECCENTRICITY":0.00035246,"INCLINATION":45.6125,"RA_OF_ASC_NODE":96.9201,"ARG_OF_PERICENTER":218.568,"MEAN_ANOMALY":141.495,"EPHEMERIS_TYPE":0,"NORAD_CAT_ID":59450,"ELEMENT_SET_NO":999,"REV_AT_EPOCH":12509,"BSTAR":0.00011449926,"MEAN_MOTION_DOT":0.00001185,"MEAN_MOTION_DDOT":0},{"OBJECT_NAME":"HAWK-10A","OBJECT_ID":"2024-149CA","EPOCH":"2026-07-22T16:09:02.130048","CLASSIFICATION_TYPE":"U","MEAN_MOTION":14.96602123,"ECCENTRICITY":0.00023546,"INCLINATION":97.6875,"RA_OF_ASC_NODE":278.9741,"ARG_OF_PERICENTER":332.0497,"MEAN_ANOMALY":28.0598,"EPHEMERIS_TYPE":0,"NORAD_CAT_ID":60540,"ELEMENT_SET_NO":999,"REV_AT_EPOCH":10529,"BSTAR":0.000097279914,"MEAN_MOTION_DOT":0.00001051,"MEAN_MOTION_DDOT":0},{"OBJECT_NAME":"HAWK-10B","OBJECT_ID":"2024-149CF","EPOCH":"2026-07-22T16:08:50.628480","CLASSIFICATION_TYPE":"U","MEAN_MOTION":14.96601552,"ECCENTRICITY":0.00045706,"INCLINATION":97.6795,"RA_OF_ASC_NODE":278.293,"ARG_OF_PERICENTER":348.2442,"MEAN_ANOMALY":11.8672,"EPHEMERIS_TYPE":0,"NORAD_CAT_ID":60545,"ELEMENT_SET_NO":999,"REV_AT_EPOCH":10529,"BSTAR":0.00010169903,"MEAN_MOTION_DOT":0.00001101,"MEAN_MOTION_DDOT":0},{"OBJECT_NAME":"HAWK-10C","OBJECT_ID":"2024-149DM","EPOCH":"2026-07-22T16:09:20.496096","CLASSIFICATION_TYPE":"U","MEAN_MOTION":14.96601609,"ECCENTRICITY":0.00019341,"INCLINATION":97.6714,"RA_OF_ASC_NODE":277.5958,"ARG_OF_PERICENTER":314.1126,"MEAN_ANOMALY":45.9936,"EPHEMERIS_TYPE":0,"NORAD_CAT_ID":60575,"ELEMENT_SET_NO":999,"REV_AT_EPOCH":10529,"BSTAR":0.00011453879,"MEAN_MOTION_DOT":0.00001247,"MEAN_MOTION_DDOT":0},{"OBJECT_NAME":"HAWK-11B","OBJECT_ID":"2024-247C","EPOCH":"2026-07-22T17:46:31.411776","CLASSIFICATION_TYPE":"U","MEAN_MOTION":15.30738438,"ECCENTRICITY":0.0002283,"INCLINATION":45.0158,"RA_OF_ASC_NODE":94.8033,"ARG_OF_PERICENTER":79.623,"MEAN_ANOMALY":280.4912,"EPHEMERIS_TYPE":0,"NORAD_CAT_ID":62379,"ELEMENT_SET_NO":999,"REV_AT_EPOCH":8845,"BSTAR":0.00018661455,"MEAN_MOTION_DOT":0.00005348,"MEAN_MOTION_DDOT":0},{"OBJECT_NAME":"HAWK-11C","OBJECT_ID":"2024-247E","EPOCH":"2026-07-22T17:45:53.383680","CLASSIFICATION_TYPE":"U","MEAN_MOTION":15.30739163,"ECCENTRICITY":0.00030776,"INCLINATION":45.0047,"RA_OF_ASC_NODE":94.128,"ARG_OF_PERICENTER":61.4915,"MEAN_ANOMALY":298.6279,"EPHEMERIS_TYPE":0,"NORAD_CAT_ID":62381,"ELEMENT_SET_NO":999,"REV_AT_EPOCH":8845,"BSTAR":0.00021473149,"MEAN_MOTION_DOT":0.00006202,"MEAN_MOTION_DDOT":0},{"OBJECT_NAME":"HAWK-11A","OBJECT_ID":"2024-247F","EPOCH":"2026-07-22T17:46:01.934688","CLASSIFICATION_TYPE":"U","MEAN_MOTION":15.30737039,"ECCENTRICITY":0.00025118,"INCLINATION":44.9941,"RA_OF_ASC_NODE":93.4488,"ARG_OF_PERICENTER":61.3573,"MEAN_ANOMALY":298.7563,"EPHEMERIS_TYPE":0,"NORAD_CAT_ID":62382,"ELEMENT_SET_NO":999,"REV_AT_EPOCH":8845,"BSTAR":0.00021944836,"MEAN_MOTION_DOT":0.00006344,"MEAN_MOTION_DDOT":0},{"OBJECT_NAME":"HAWK-12C","OBJECT_ID":"2025-138A","EPOCH":"2026-07-21T10:39:40.638240","CLASSIFICATION_TYPE":"U","MEAN_MOTION":15.18436833,"ECCENTRICITY":0.00147465,"INCLINATION":97.436,"RA_OF_ASC_NODE":204.3124,"ARG_OF_PERICENTER":31.0884,"MEAN_ANOMALY":329.122,"EPHEMERIS_TYPE":0,"NORAD_CAT_ID":64621,"ELEMENT_SET_NO":999,"REV_AT_EPOCH":5906,"BSTAR":0.00015100994,"MEAN_MOTION_DOT":0.00003049,"MEAN_MOTION_DDOT":0},{"OBJECT_NAME":"HAWK-12B","OBJECT_ID":"2025-138B","EPOCH":"2026-07-21T10:39:55.800576","CLASSIFICATION_TYPE":"U","MEAN_MOTION":15.18436117,"ECCENTRICITY":0.00135965,"INCLINATION":97.4484,"RA_OF_ASC_NODE":205.016,"ARG_OF_PERICENTER":27.1854,"MEAN_ANOMALY":333.0089,"EPHEMERIS_TYPE":0,"NORAD_CAT_ID":64622,"ELEMENT_SET_NO":999,"REV_AT_EPOCH":5906,"BSTAR":0.00015134503,"MEAN_MOTION_DOT":0.00003054,"MEAN_MOTION_DDOT":0}]}
