{"epoch":1784799577,"count":18318,"objects":[{"id":"56193","name":"HAWK-7B","type":"PAYLOAD","l1":"1 56193U 23054R   26203.74621937  .00005420  00000-0  20297-3 0  9994","l2":"2 56193  97.2681  88.4552 0000492 355.1167   5.0068 15.27690228182455"},{"id":"56200","name":"HAWK-7C","type":"PAYLOAD","l1":"1 56200U 23054Y   26203.54959052  .00005338  00000-0  19997-3 0  9996","l2":"2 56200  97.2655  89.0215 0000310 267.9693  92.1512 15.27686732182424"},{"id":"59443","name":"HAWK-8A","type":"PAYLOAD","l1":"1 59443U 24066B   26203.69434417  .00000854  00000-0  87585-4 0  9998","l2":"2 59443  45.5993  93.0377 0003448 248.9090 111.1423 14.99295930125161"},{"id":"59445","name":"HAWK-8B","type":"PAYLOAD","l1":"1 59445U 24066D   26203.76145179  .00000575  00000-0  65060-4 0  9996","l2":"2 59445  45.6165  94.6842 0003626 252.7339 107.3146 14.99295331125160"},{"id":"59446","name":"HAWK-9A","type":"PAYLOAD","l1":"1 59446U 24066E   26203.71799599  .00001029  00000-0  10184-3 0  9994","l2":"2 59446  45.6102  93.5726 0003328 237.2704 122.7857 14.99231434125168"},{"id":"59448","name":"HAWK-9C","type":"PAYLOAD","l1":"1 59448U 24066G   26203.71826483  .00001163  00000-0  11272-3 0  9997","l2":"2 59448  45.6073  92.6681 0003262 224.1947 135.8674 14.99231340125166"},{"id":"59449","name":"HAWK-8C","type":"PAYLOAD","l1":"1 59449U 24066H   26203.76089664  .00000878  00000-0  89524-4 0  9993","l2":"2 59449  45.6079  93.6986 0003103 256.9227 103.1308 14.99303920125166"},{"id":"59450","name":"HAWK-9B","type":"PAYLOAD","l1":"1 59450U 24066J   26203.25187329  .00001185  00000-0  11450-3 0  9990","l2":"2 59450  45.6125  96.9201 0003525 218.5680 141.4950 14.99226615125096"},{"id":"60540","name":"HAWK-10A","type":"PAYLOAD","l1":"1 60540U 24149CA  26203.67294132  .00001051  00000-0  97280-4 0  9999","l2":"2 60540  97.6875 278.9741 0002355 332.0497  28.0598 14.96602123105293"},{"id":"60545","name":"HAWK-10B","type":"PAYLOAD","l1":"1 60545U 24149CF  26203.67280820  .00001101  00000-0  10170-3 0  9991","l2":"2 60545  97.6795 278.2930 0004571 348.2442  11.8672 14.96601552105291"},{"id":"60575","name":"HAWK-10C","type":"PAYLOAD","l1":"1 60575U 24149DM  26203.67315389  .00001247  00000-0  11454-3 0  9990","l2":"2 60575  97.6714 277.5958 0001934 314.1126  45.9936 14.96601609105292"},{"id":"62379","name":"HAWK-11B","type":"PAYLOAD","l1":"1 62379U 24247C   26203.74064134  .00005348  00000-0  18661-3 0  9993","l2":"2 62379  45.0158  94.8033 0002283  79.6230 280.4912 15.30738438 88454"},{"id":"62381","name":"HAWK-11C","type":"PAYLOAD","l1":"1 62381U 24247E   26203.74020120  .00006202  00000-0  21473-3 0  9998","l2":"2 62381  45.0047  94.1280 0003078  61.4915 298.6279 15.30739163 88456"},{"id":"62382","name":"HAWK-11A","type":"PAYLOAD","l1":"1 62382U 24247F   26203.74030017  .00006344  00000-0  21945-3 0  9996","l2":"2 62382  44.9941  93.4488 0002512  61.3573 298.7563 15.30737039 88458"},{"id":"64621","name":"HAWK-12C","type":"PAYLOAD","l1":"1 64621U 25138A   26202.44422035  .00003049  00000-0  15101-3 0  9991","l2":"2 64621  97.4360 204.3124 0014747  31.0884 329.1220 15.18436833 59064"},{"id":"64622","name":"HAWK-12B","type":"PAYLOAD","l1":"1 64622U 25138B   26202.44439584  .00003054  00000-0  15135-3 0  9992","l2":"2 64622  97.4484 205.0160 0013596  27.1854 333.0089 15.18436117 59066"}]}